CCSDS_OMM_VERS = 2.0
CREATION_DATE  = 
ORIGINATOR     = 

OBJECT_NAME    = UNKNOWN
OBJECT_ID      = 
CENTER_NAME    = EARTH
REF_FRAME      = TEME
TIME_SYSTEM    = UTC
MEAN_ELEMENT_THEORY = SGP/SGP4

EPOCH          = 2026-04-04T05:24:02.045952
MEAN_MOTION    = 14.06073326
ECCENTRICITY   = .0154859
INCLINATION    = 98.7330
RA_OF_ASC_NODE = 199.1250
ARG_OF_PERICENTER = 111.7512
MEAN_ANOMALY   = 250.0219

EPHEMERIS_TYPE = 0
CLASSIFICATION_TYPE = U
NORAD_CAT_ID   = 87884
ELEMENT_SET_NO = 999
REV_AT_EPOCH   = 63417
BSTAR          = .41772E-3
MEAN_MOTION_DOT = .723E-5
MEAN_MOTION_DDOT = 0

CCSDS_OMM_VERS = 2.0
CREATION_DATE  = 
ORIGINATOR     = 

OBJECT_NAME    = UNKNOWN
OBJECT_ID      = 
CENTER_NAME    = EARTH
REF_FRAME      = TEME
TIME_SYSTEM    = UTC
MEAN_ELEMENT_THEORY = SGP/SGP4

EPOCH          = 2026-03-27T15:51:13.578912
MEAN_MOTION    = 13.73127491
ECCENTRICITY   = .0031922
INCLINATION    = 82.9367
RA_OF_ASC_NODE = 222.1462
ARG_OF_PERICENTER = 104.6301
MEAN_ANOMALY   = 272.3687

EPHEMERIS_TYPE = 0
CLASSIFICATION_TYPE = U
NORAD_CAT_ID   = 87934
ELEMENT_SET_NO = 999
REV_AT_EPOCH   = 61871
BSTAR          = .8285E-4
MEAN_MOTION_DOT = .92E-6
MEAN_MOTION_DDOT = 0

CCSDS_OMM_VERS = 2.0
CREATION_DATE  = 
ORIGINATOR     = 

OBJECT_NAME    = UNKNOWN
OBJECT_ID      = 
CENTER_NAME    = EARTH
REF_FRAME      = TEME
TIME_SYSTEM    = UTC
MEAN_ELEMENT_THEORY = SGP/SGP4

EPOCH          = 2026-04-05T10:16:02.707968
MEAN_MOTION    = 12.35657420
ECCENTRICITY   = .0892777
INCLINATION    = 28.6184
RA_OF_ASC_NODE = 142.2520
ARG_OF_PERICENTER = 93.6627
MEAN_ANOMALY   = 276.6298

EPHEMERIS_TYPE = 0
CLASSIFICATION_TYPE = U
NORAD_CAT_ID   = 87991
ELEMENT_SET_NO = 999
REV_AT_EPOCH   = 53706
BSTAR          = -.51455E-2
MEAN_MOTION_DOT = -.255E-4
MEAN_MOTION_DDOT = 0

CCSDS_OMM_VERS = 2.0
CREATION_DATE  = 
ORIGINATOR     = 

OBJECT_NAME    = UNKNOWN
OBJECT_ID      = 2025-241B
CENTER_NAME    = EARTH
REF_FRAME      = TEME
TIME_SYSTEM    = UTC
MEAN_ELEMENT_THEORY = SGP/SGP4

EPOCH          = 2026-03-18T20:58:45.947424
MEAN_MOTION    = 15.22548355
ECCENTRICITY   = .0004488
INCLINATION    = 51.6342
RA_OF_ASC_NODE = 29.1833
ARG_OF_PERICENTER = 186.7062
MEAN_ANOMALY   = 173.3856

EPHEMERIS_TYPE = 0
CLASSIFICATION_TYPE = U
NORAD_CAT_ID   = 88780
ELEMENT_SET_NO = 999
REV_AT_EPOCH   = 114
BSTAR          = .35116E-3
MEAN_MOTION_DOT = .7938E-4
MEAN_MOTION_DDOT = 0

CCSDS_OMM_VERS = 2.0
CREATION_DATE  = 
ORIGINATOR     = 

OBJECT_NAME    = UNKNOWN
OBJECT_ID      = 
CENTER_NAME    = EARTH
REF_FRAME      = TEME
TIME_SYSTEM    = UTC
MEAN_ELEMENT_THEORY = SGP/SGP4

EPOCH          = 2026-04-01T23:25:42.224160
MEAN_MOTION    = 14.46425672
ECCENTRICITY   = .0190322
INCLINATION    = 97.8428
RA_OF_ASC_NODE = 277.9346
ARG_OF_PERICENTER = 52.3824
MEAN_ANOMALY   = 309.4475

EPHEMERIS_TYPE = 0
CLASSIFICATION_TYPE = U
NORAD_CAT_ID   = 89005
ELEMENT_SET_NO = 999
REV_AT_EPOCH   = 55002
BSTAR          = .55699E-3
MEAN_MOTION_DOT = .2463E-4
MEAN_MOTION_DDOT = 0

CCSDS_OMM_VERS = 2.0
CREATION_DATE  = 
ORIGINATOR     = 

OBJECT_NAME    = UNKNOWN
OBJECT_ID      = 
CENTER_NAME    = EARTH
REF_FRAME      = TEME
TIME_SYSTEM    = UTC
MEAN_ELEMENT_THEORY = SGP/SGP4

EPOCH          = 2026-04-04T12:44:40.703424
MEAN_MOTION    = 14.96018007
ECCENTRICITY   = .0021141
INCLINATION    = 98.0426
RA_OF_ASC_NODE = 1.7246
ARG_OF_PERICENTER = 313.6789
MEAN_ANOMALY   = 46.2679

EPHEMERIS_TYPE = 0
CLASSIFICATION_TYPE = U
NORAD_CAT_ID   = 89029
ELEMENT_SET_NO = 999
REV_AT_EPOCH   = 66793
BSTAR          = .83387E-3
MEAN_MOTION_DOT = .9344E-4
MEAN_MOTION_DDOT = 0

CCSDS_OMM_VERS = 2.0
CREATION_DATE  = 
ORIGINATOR     = 

OBJECT_NAME    = UNKNOWN
OBJECT_ID      = 
CENTER_NAME    = EARTH
REF_FRAME      = TEME
TIME_SYSTEM    = UTC
MEAN_ELEMENT_THEORY = SGP/SGP4

EPOCH          = 2026-04-01T15:43:00.005088
MEAN_MOTION    = 13.04042441
ECCENTRICITY   = .0146273
INCLINATION    = 100.4750
RA_OF_ASC_NODE = 29.9210
ARG_OF_PERICENTER = 223.0426
MEAN_ANOMALY   = 135.9164

EPHEMERIS_TYPE = 0
CLASSIFICATION_TYPE = U
NORAD_CAT_ID   = 89101
ELEMENT_SET_NO = 999
REV_AT_EPOCH   = 56917
BSTAR          = .12472E-2
MEAN_MOTION_DOT = .375E-5
MEAN_MOTION_DDOT = 0

CCSDS_OMM_VERS = 2.0
CREATION_DATE  = 
ORIGINATOR     = 

OBJECT_NAME    = UNKNOWN
OBJECT_ID      = 
CENTER_NAME    = EARTH
REF_FRAME      = TEME
TIME_SYSTEM    = UTC
MEAN_ELEMENT_THEORY = SGP/SGP4

EPOCH          = 2026-03-28T13:34:07.983552
MEAN_MOTION    = 8.88041995
ECCENTRICITY   = .2924305
INCLINATION    = 63.4178
RA_OF_ASC_NODE = 287.3170
ARG_OF_PERICENTER = 319.7281
MEAN_ANOMALY   = 21.9439

EPHEMERIS_TYPE = 0
CLASSIFICATION_TYPE = U
NORAD_CAT_ID   = 89132
ELEMENT_SET_NO = 999
REV_AT_EPOCH   = 33450
BSTAR          = .19457E-2
MEAN_MOTION_DOT = .1441E-4
MEAN_MOTION_DDOT = 0

CCSDS_OMM_VERS = 2.0
CREATION_DATE  = 
ORIGINATOR     = 

OBJECT_NAME    = UNKNOWN
OBJECT_ID      = 
CENTER_NAME    = EARTH
REF_FRAME      = TEME
TIME_SYSTEM    = UTC
MEAN_ELEMENT_THEORY = SGP/SGP4

EPOCH          = 2026-04-05T06:17:03.274080
MEAN_MOTION    = 14.64242553
ECCENTRICITY   = .0093049
INCLINATION    = 98.2557
RA_OF_ASC_NODE = 29.1175
ARG_OF_PERICENTER = 60.1065
MEAN_ANOMALY   = 300.9341

EPHEMERIS_TYPE = 0
CLASSIFICATION_TYPE = U
NORAD_CAT_ID   = 89146
ELEMENT_SET_NO = 999
REV_AT_EPOCH   = 64548
BSTAR          = .11233E-2
MEAN_MOTION_DOT = .6256E-4
MEAN_MOTION_DDOT = 0

CCSDS_OMM_VERS = 2.0
CREATION_DATE  = 
ORIGINATOR     = 

OBJECT_NAME    = UNKNOWN
OBJECT_ID      = 
CENTER_NAME    = EARTH
REF_FRAME      = TEME
TIME_SYSTEM    = UTC
MEAN_ELEMENT_THEORY = SGP/SGP4

EPOCH          = 2026-03-20T08:17:33.957888
MEAN_MOTION    = 15.93413522
ECCENTRICITY   = .0009475
INCLINATION    = 97.6294
RA_OF_ASC_NODE = 106.9899
ARG_OF_PERICENTER = 106.8536
MEAN_ANOMALY   = 253.3777

EPHEMERIS_TYPE = 0
CLASSIFICATION_TYPE = U
NORAD_CAT_ID   = 89161
ELEMENT_SET_NO = 999
REV_AT_EPOCH   = 56376
BSTAR          = .31768E-2
MEAN_MOTION_DOT = .1120648E-1
MEAN_MOTION_DDOT = .57617E-3

CCSDS_OMM_VERS = 2.0
CREATION_DATE  = 
ORIGINATOR     = 

OBJECT_NAME    = UNKNOWN
OBJECT_ID      = 
CENTER_NAME    = EARTH
REF_FRAME      = TEME
TIME_SYSTEM    = UTC
MEAN_ELEMENT_THEORY = SGP/SGP4

EPOCH          = 2026-04-04T00:34:01.512768
MEAN_MOTION    = 14.49691267
ECCENTRICITY   = .0278446
INCLINATION    = 82.0604
RA_OF_ASC_NODE = 116.2928
ARG_OF_PERICENTER = 294.7340
MEAN_ANOMALY   = 62.5108

EPHEMERIS_TYPE = 0
CLASSIFICATION_TYPE = U
NORAD_CAT_ID   = 89172
ELEMENT_SET_NO = 999
REV_AT_EPOCH   = 61814
BSTAR          = .25546E-2
MEAN_MOTION_DOT = .16244E-3
MEAN_MOTION_DDOT = 0

CCSDS_OMM_VERS = 2.0
CREATION_DATE  = 
ORIGINATOR     = 

OBJECT_NAME    = UNKNOWN
OBJECT_ID      = 
CENTER_NAME    = EARTH
REF_FRAME      = TEME
TIME_SYSTEM    = UTC
MEAN_ELEMENT_THEORY = SGP/SGP4

EPOCH          = 2026-04-03T17:09:44.197632
MEAN_MOTION    = 13.81734135
ECCENTRICITY   = .0129158
INCLINATION    = 99.2170
RA_OF_ASC_NODE = 7.2425
ARG_OF_PERICENTER = 218.4976
MEAN_ANOMALY   = 140.6911

EPHEMERIS_TYPE = 0
CLASSIFICATION_TYPE = U
NORAD_CAT_ID   = 89183
ELEMENT_SET_NO = 999
REV_AT_EPOCH   = 62243
BSTAR          = .63646E-3
MEAN_MOTION_DOT = .681E-5
MEAN_MOTION_DDOT = 0

